[C_Anonymus%281018%29]
absolute_magnitude=4.0
albedo=0.1
color=1.0, 1.0, 1.0
coord_func=comet_orbit
dust_brightnessfactor=1.5
dust_lengthfactor=0.4
dust_widthfactor=1.5
name=C/Anonymus (1018)
orbit_ArgOfPericenter=197.00000
orbit_AscendingNode=184.00000
orbit_Eccentricity=1.00000000
orbit_Epoch=2093120.500000
orbit_Inclination=35.00000
orbit_PericenterDistance=0.62000000
orbit_TimeAtPericenter=2093120.50000
orbit_good=1000
radius=5
slope_parameter=4.0
tex_map=nomap.png
type=comet

[C_Anonymus%281080%29]
absolute_magnitude=4.0
albedo=0.1
color=1.0, 1.0, 1.0
coord_func=comet_orbit
dust_brightnessfactor=1.5
dust_lengthfactor=0.4
dust_widthfactor=1.5
name=C/Anonymus (1080)
orbit_ArgOfPericenter=73.63000
orbit_AscendingNode=322.20000
orbit_Eccentricity=1.00000000
orbit_Epoch=2115781.440000
orbit_Inclination=6.89000
orbit_PericenterDistance=0.68090000
orbit_TimeAtPericenter=2115781.44000
orbit_good=1000
radius=5
slope_parameter=4.0
tex_map=nomap.png
type=comet

[C_Anonymus%281092%29]
absolute_magnitude=3.5
albedo=0.1
color=1.0, 1.0, 1.0
coord_func=comet_orbit
dust_brightnessfactor=1.5
dust_lengthfactor=0.4
dust_widthfactor=1.5
name=C/Anonymus (1092)
orbit_ArgOfPericenter=62.00000
orbit_AscendingNode=113.00000
orbit_Eccentricity=1.00000000
orbit_Epoch=2119962.500000
orbit_Inclination=124.00000
orbit_PericenterDistance=0.77000000
orbit_TimeAtPericenter=2119962.50000
orbit_good=1000
radius=5
slope_parameter=4.0
tex_map=nomap.png
type=comet

[C_Anonymus%281097%29]
absolute_magnitude=6.0
albedo=0.1
color=1.0, 1.0, 1.0
coord_func=comet_orbit
dust_brightnessfactor=1.5
dust_lengthfactor=0.4
dust_widthfactor=1.5
name=C/Anonymus (1097)
orbit_ArgOfPericenter=298.00000
orbit_AscendingNode=351.00000
orbit_Eccentricity=1.00000000
orbit_Epoch=2122001.800000
orbit_Inclination=41.00000
orbit_PericenterDistance=0.30200000
orbit_TimeAtPericenter=2122001.80000
orbit_good=1000
radius=5
slope_parameter=4.0
tex_map=nomap.png
type=comet

[C_Anonymus%281110%29]
absolute_magnitude=4.0
albedo=0.1
color=1.0, 1.0, 1.0
coord_func=comet_orbit
dust_brightnessfactor=1.5
dust_lengthfactor=0.4
dust_widthfactor=1.5
name=C/Anonymus (1110)
orbit_ArgOfPericenter=358.00000
orbit_AscendingNode=320.00000
orbit_Eccentricity=1.00000000
orbit_Epoch=2126622.500000
orbit_Inclination=136.50000
orbit_PericenterDistance=0.83000000
orbit_TimeAtPericenter=2126622.50000
orbit_good=1000
radius=5
slope_parameter=4.0
tex_map=nomap.png
type=comet

[C_Anonymus%281132%29]
absolute_magnitude=4.0
albedo=0.1
color=1.0, 1.0, 1.0
coord_func=comet_orbit
dust_brightnessfactor=1.5
dust_lengthfactor=0.4
dust_widthfactor=1.5
name=C/Anonymus (1132)
orbit_ArgOfPericenter=114.20000
orbit_AscendingNode=212.50000
orbit_Eccentricity=1.00000000
orbit_Epoch=2134763.200000
orbit_Inclination=106.30000
orbit_PericenterDistance=0.73550000
orbit_TimeAtPericenter=2134763.20000
orbit_good=1000
radius=5
slope_parameter=4.0
tex_map=nomap.png
type=comet

[C_Anonymus%281147%29]
absolute_magnitude=4.0
albedo=0.1
color=1.0, 1.0, 1.0
coord_func=comet_orbit
dust_brightnessfactor=1.5
dust_lengthfactor=0.4
dust_widthfactor=1.5
name=C/Anonymus (1147)
orbit_ArgOfPericenter=300.00000
orbit_AscendingNode=281.00000
orbit_Eccentricity=1.00000000
orbit_Epoch=2140026.500000
orbit_Inclination=110.00000
orbit_PericenterDistance=0.12000000
orbit_TimeAtPericenter=2140026.50000
orbit_good=1000
radius=5
slope_parameter=4.0
tex_map=nomap.png
type=comet

[C_Anonymus%281230%29]
absolute_magnitude=6.0
albedo=0.1
color=1.0, 1.0, 1.0
coord_func=comet_orbit
dust_brightnessfactor=1.5
dust_lengthfactor=0.4
dust_widthfactor=1.5
name=C/Anonymus (1230)
orbit_ArgOfPericenter=181.00000
orbit_AscendingNode=303.00000
orbit_Eccentricity=1.00000000
orbit_Epoch=2170677.300000
orbit_Inclination=16.00000
orbit_PericenterDistance=0.86000000
orbit_TimeAtPericenter=2170677.30000
orbit_good=1000
radius=5
slope_parameter=4.0
tex_map=nomap.png
type=comet

[C_Anonymus%281240%29]
absolute_magnitude=4.0
albedo=0.1
color=1.0, 1.0, 1.0
coord_func=comet_orbit
dust_brightnessfactor=1.5
dust_lengthfactor=0.4
dust_widthfactor=1.5
name=C/Anonymus (1240)
orbit_ArgOfPericenter=331.40000
orbit_AscendingNode=134.40000
orbit_Eccentricity=1.00000000
orbit_Epoch=2173988.060000
orbit_Inclination=75.30000
orbit_PericenterDistance=0.66770000
orbit_TimeAtPericenter=2173988.06000
orbit_good=1000
radius=5
slope_parameter=4.0
tex_map=nomap.png
type=comet

[C_Anonymus%281245%29]
absolute_magnitude=4.0
albedo=0.1
color=1.0, 1.0, 1.0
coord_func=comet_orbit
dust_brightnessfactor=1.5
dust_lengthfactor=0.4
dust_widthfactor=1.5
name=C/Anonymus (1245)
orbit_ArgOfPericenter=87.00000
orbit_AscendingNode=179.00000
orbit_Eccentricity=1.00000000
orbit_Epoch=2175884.500000
orbit_Inclination=20.00000
orbit_PericenterDistance=0.50000000
orbit_TimeAtPericenter=2175884.50000
orbit_good=1000
radius=5
slope_parameter=4.0
tex_map=nomap.png
type=comet

[C_Anonymus%281264%29]
absolute_magnitude=3.5
albedo=0.1
color=1.0, 1.0, 1.0
coord_func=comet_orbit
dust_brightnessfactor=1.5
dust_lengthfactor=0.4
dust_widthfactor=1.5
name=C/Anonymus (1264)
orbit_ArgOfPericenter=159.70000
orbit_AscendingNode=150.35000
orbit_Eccentricity=1.00000000
orbit_Epoch=2182934.790000
orbit_Inclination=16.40000
orbit_PericenterDistance=0.82490000
orbit_TimeAtPericenter=2182934.79000
orbit_good=1000
radius=5
slope_parameter=4.0
tex_map=nomap.png
type=comet

[C_Anonymus%281293%29]
absolute_magnitude=4.0
albedo=0.1
color=1.0, 1.0, 1.0
coord_func=comet_orbit
dust_brightnessfactor=1.5
dust_lengthfactor=0.4
dust_widthfactor=1.5
name=C/Anonymus (1293)
orbit_ArgOfPericenter=313.00000
orbit_AscendingNode=88.00000
orbit_Eccentricity=1.00000000
orbit_Epoch=2193626.500000
orbit_Inclination=30.00000
orbit_PericenterDistance=0.78000000
orbit_TimeAtPericenter=2193626.50000
orbit_good=1000
radius=5
slope_parameter=4.0
tex_map=nomap.png
type=comet

[C_Anonymus%281299%29]
absolute_magnitude=2.0
albedo=0.1
color=1.0, 1.0, 1.0
coord_func=comet_orbit
dust_brightnessfactor=1.5
dust_lengthfactor=0.4
dust_widthfactor=1.5
name=C/Anonymus (1299)
orbit_ArgOfPericenter=103.88000
orbit_AscendingNode=116.24000
orbit_Eccentricity=1.00000000
orbit_Epoch=2195607.310000
orbit_Inclination=111.01000
orbit_PericenterDistance=0.31793000
orbit_TimeAtPericenter=2195607.31000
orbit_good=1000
radius=5
slope_parameter=4.0
tex_map=nomap.png
type=comet

[C_Anonymus%281305%29]
absolute_magnitude=4.0
albedo=0.1
color=1.0, 1.0, 1.0
coord_func=comet_orbit
dust_brightnessfactor=1.5
dust_lengthfactor=0.4
dust_widthfactor=1.5
name=C/Anonymus (1305)
orbit_ArgOfPericenter=56.00000
orbit_AscendingNode=105.00000
orbit_Eccentricity=1.00000000
orbit_Epoch=2197727.500000
orbit_Inclination=99.00000
orbit_PericenterDistance=0.65000000
orbit_TimeAtPericenter=2197727.50000
orbit_good=1000
radius=5
slope_parameter=4.0
tex_map=nomap.png
type=comet

[C_Anonymus%281337%29]
absolute_magnitude=2.9
albedo=0.1
color=1.0, 1.0, 1.0
coord_func=comet_orbit
dust_brightnessfactor=1.5
dust_lengthfactor=0.4
dust_widthfactor=1.5
name=C/Anonymus (1337)
orbit_ArgOfPericenter=79.60000
orbit_AscendingNode=96.90000
orbit_Eccentricity=1.00000000
orbit_Epoch=2209562.350000
orbit_Inclination=143.60000
orbit_PericenterDistance=0.74900000
orbit_TimeAtPericenter=2209562.35000
orbit_good=1000
radius=5
slope_parameter=4.0
tex_map=nomap.png
type=comet

[C_Anonymus%281340%29]
absolute_magnitude=4.0
albedo=0.1
color=1.0, 1.0, 1.0
coord_func=comet_orbit
dust_brightnessfactor=1.5
dust_lengthfactor=0.4
dust_widthfactor=1.5
name=C/Anonymus (1340)
orbit_ArgOfPericenter=32.46000
orbit_AscendingNode=186.95000
orbit_Eccentricity=1.00000000
orbit_Epoch=2210626.120000
orbit_Inclination=176.49000
orbit_PericenterDistance=1.13620000
orbit_TimeAtPericenter=2210626.12000
orbit_good=1000
radius=5
slope_parameter=4.0
tex_map=nomap.png
type=comet

[C_Anonymus%281345%29]
absolute_magnitude=4.0
albedo=0.1
color=1.0, 1.0, 1.0
coord_func=comet_orbit
dust_brightnessfactor=1.5
dust_lengthfactor=0.4
dust_widthfactor=1.5
name=C/Anonymus (1345)
orbit_ArgOfPericenter=210.00000
orbit_AscendingNode=149.00000
orbit_Eccentricity=1.00000000
orbit_Epoch=2212553.500000
orbit_Inclination=23.00000
orbit_PericenterDistance=0.89000000
orbit_TimeAtPericenter=2212553.50000
orbit_good=1000
radius=5
slope_parameter=4.0
tex_map=nomap.png
type=comet

[C_Anonymus%281351%29]
absolute_magnitude=9.0
albedo=0.1
color=1.0, 1.0, 1.0
coord_func=comet_orbit
dust_brightnessfactor=1.5
dust_lengthfactor=0.4
dust_widthfactor=1.5
name=C/Anonymus (1351)
orbit_ArgOfPericenter=165.00000
orbit_AscendingNode=263.00000
orbit_Eccentricity=1.00000000
orbit_Epoch=2214832.500000
orbit_Inclination=7.00000
orbit_PericenterDistance=1.01000000
orbit_TimeAtPericenter=2214832.50000
orbit_good=1000
radius=5
slope_parameter=4.0
tex_map=nomap.png
type=comet

[C_Anonymus%281362%29]
absolute_magnitude=5.8
albedo=0.1
color=1.0, 1.0, 1.0
coord_func=comet_orbit
dust_brightnessfactor=1.5
dust_lengthfactor=0.4
dust_widthfactor=1.5
name=C/Anonymus (1362)
orbit_ArgOfPericenter=348.00000
orbit_AscendingNode=290.00000
orbit_Eccentricity=1.00000000
orbit_Epoch=2218583.500000
orbit_Inclination=155.00000
orbit_PericenterDistance=0.30000000
orbit_TimeAtPericenter=2218583.50000
orbit_good=1000
radius=5
slope_parameter=4.0
tex_map=nomap.png
type=comet

[C_Anonymus%281368%29]
absolute_magnitude=4.0
albedo=0.1
color=1.0, 1.0, 1.0
coord_func=comet_orbit
dust_brightnessfactor=1.5
dust_lengthfactor=0.4
dust_widthfactor=1.5
name=C/Anonymus (1368)
orbit_ArgOfPericenter=90.00000
orbit_AscendingNode=216.00000
orbit_Eccentricity=1.00000000
orbit_Epoch=2220844.500000
orbit_Inclination=131.00000
orbit_PericenterDistance=0.48000000
orbit_TimeAtPericenter=2220844.50000
orbit_good=1000
radius=5
slope_parameter=4.0
tex_map=nomap.png
type=comet

